IRIDIUM 33 DEB          
1 35628U 97051RA  26094.88497698  .00008823  00000+0  14786-2 0  9994
2 35628  86.3552 318.5472 0009838 310.8477  49.1885 14.69634755881072
IRIDIUM 33 DEB          
1 35631U 97051RD  26094.62513715  .00001599  00000+0  42703-3 0  9993
2 35631  86.3689 332.3815 0018825 102.0892 287.5811 14.47698165888301
IRIDIUM 33 DEB          
1 35680U 97051RJ  26094.90576351  .00006511  00000+0  25904-2 0  9995
2 35680  86.1027 331.3599 0148850 280.3598  93.4002 14.22677167623093
IRIDIUM 33 DEB          
1 35744U 97051RX  26091.93494960  .00007678  00000+0  11959-2 0  9991
2 35744  86.3228 275.5653 0020833 172.9651 187.1863 14.72708679889521
IRIDIUM 33 DEB          
1 35797U 97051SF  26095.21493924  .00018208  00000+0  20483-2 0  9996
2 35797  86.3304 277.6660 0012684 117.8289 242.4223 14.86533022890244
IRIDIUM 33 DEB          
1 35806U 97051SQ  26087.41700966  .00004716  00000+0  10059-2 0  9994
2 35806  86.3462 334.0677 0015971  72.6099 287.6855 14.58659928878640
IRIDIUM 33 DEB          
1 35809U 97051ST  26091.26711666  .00012675  00000+0  17346-2 0  9993
2 35809  86.3216 285.3551 0010460 219.8511 140.1942 14.78394809884240
IRIDIUM 33 DEB          
1 35846U 97051SW  26095.18278759  .00002629  00000+0  76738-3 0  9999
2 35846  86.3801  10.4113 0018285 152.2935 207.9244 14.43674302729656
IRIDIUM 33 DEB          
1 35848U 97051SY  26091.92495115  .00011647  00000+0  14715-2 0  9992
2 35848  86.3902 326.4626 0007335 163.4408 196.7055 14.81777012683201
IRIDIUM 33 DEB          
1 35850U 97051TA  26089.28458259  .00013568  00000+0  17139-2 0  9996
2 35850  86.3449 295.2049 0009133 172.3838 187.7525 14.81777826729482
IRIDIUM 33 DEB          
1 35915U 97051TY  26082.86992109  .00012841  00000+0  15384-2 0  9995
2 35915  86.3396 296.6253 0009705 195.9754 164.1165 14.83975606 95843
IRIDIUM 33 DEB          
1 35918U 97051UB  26091.55594726  .00004293  00000+0  10470-2 0  9990
2 35918  86.4051  28.6252 0026003 157.4201  20.4294 14.52281649868003
IRIDIUM 33 DEB          
1 35929U 97051UN  26093.71090570  .00072023  00000+0  41458-2 0  9996
2 35929  86.3398 259.2114 0012987 332.4660  27.5889 15.12052380894661
IRIDIUM 33 DEB          
1 36011U 97051US  26092.46423228  .00001815  00000+0  54953-3 0  9996
2 36011  86.3450 347.8727 0016883 211.8744 329.2715 14.41749682661356
IRIDIUM 33 DEB          
1 36012U 97051UT  26094.88824939  .00005294  00000+0  19326-2 0  9998
2 36012  86.4393 261.8257 0215222 260.9790  96.6988 14.20841669670904
IRIDIUM 33 DEB          
1 36028U 97051VK  26089.69582518  .00038639  00000+0  29684-2 0  9999
2 36028  86.3177 255.6584 0014691  17.8833 342.2914 15.01489736887416
